NORAD_CAT_ID,OBJECT_NAME,OBJECT_TYPE,EPOCH,MEAN_MOTION,ECCENTRICITY,INCLINATION,RA_OF_ASC_NODE,ARG_OF_PERICENTER,MEAN_ANOMALY,BSTAR,MEAN_MOTION_DOT,MEAN_MOTION_DDOT,TLE_LINE0,TLE_LINE1,TLE_LINE2,SEMIMAJOR_AXIS,PERIOD,APOGEE,PERIGEE,DECAYED
51895.0,STARLINK-3594,PAYLOAD,2024-07-13 16:33:25,15.08837781,0.0001418,53.2169,190.5841,93.5689,266.5465,2.3419e-05,8.5e-07,0.0,0 STARLINK-3594,1 51895U 22022AV  24195.68987544  .00000085  00000-0  23419-4 0  9994,2 51895  53.2169 190.5841 0001418  93.5689 266.5465 15.08837781132062,6917.887,95.438,540.733,538.771,0.0
51895.0,STARLINK-3594,PAYLOAD,2024-07-14 10:02:39,15.08842645,0.0001414,53.2169,187.3128,92.6517,267.4637,8.562e-05,1.075e-05,0.0,0 STARLINK-3594,1 51895U 22022AV  24196.41851157  .00001075  00000-0  85620-4 0  9998,2 51895  53.2169 187.3128 0001414  92.6517 267.4637 15.08842645132178,6917.872,95.437,540.715,538.759,0.0
51895.0,STARLINK-3594,PAYLOAD,2024-07-14 16:24:11,15.08845933,0.0001422,53.2171,186.1232,89.398,270.7175,9.0927e-05,1.16e-05,0.0,0 STARLINK-3594,1 51895U 22022AV  24196.68346900  .00001160  00000-0  90927-4 0  9993,2 51895  53.2171 186.1232 0001422  89.3980 270.7175 15.08845933132212,6917.862,95.437,540.711,538.744,0.0
51895.0,STARLINK-3594,PAYLOAD,2024-07-15 05:07:17,15.08833893,0.0001619,53.2182,183.7448,88.2315,271.8863,5.3047e-05,5.56e-06,0.0,0 STARLINK-3594,1 51895U 22022AV  24197.21339971  .00000556  00000-0  53047-4 0  9993,2 51895  53.2182 183.7448 0001619  88.2315 271.8863 15.08833893132290,6917.899,95.438,540.884,538.644,0.0
51895.0,STARLINK-3594,PAYLOAD,2024-07-15 08:18:03,15.0883544,0.0001445,53.2168,183.1489,82.5285,277.5872,5.9054e-05,6.52e-06,0.0,0 STARLINK-3594,1 51895U 22022AV  24197.34587821  .00000652  00000-0  59054-4 0  9997,2 51895  53.2168 183.1489 0001445  82.5285 277.5872 15.08835440132319,6917.894,95.438,540.759,538.76,0.0
51895.0,STARLINK-3594,PAYLOAD,2024-07-16 06:33:27,15.08843289,0.0001304,53.2157,178.9862,100.532,259.5819,2.9801e-05,1.86e-06,0.0,0 STARLINK-3594,1 51895U 22022AV  24198.27323338  .00000186  00000-0  29801-4 0  9990,2 51895  53.2157 178.9862 0001304 100.5320 259.5819 15.08843289132455,6917.87,95.437,540.637,538.833,0.0
51895.0,STARLINK-3594,PAYLOAD,2024-07-17 07:59:37,15.08838872,0.0001367,53.2164,174.2267,94.5672,265.5476,2.4794e-05,1.07e-06,0.0,0 STARLINK-3594,1 51895U 22022AV  24199.33307620  .00000107  00000-0  24794-4 0  9993,2 51895  53.2164 174.2267 0001367  94.5672 265.5476 15.08838872132618,6917.884,95.438,540.695,538.803,0.0
51895.0,STARLINK-3594,PAYLOAD,2024-07-18 07:50:24,15.08841484,0.0001372,53.2168,169.7652,98.8416,261.2731,3.0655e-05,2e-06,0.0,0 STARLINK-3594,1 51895U 22022AV  24200.32667601  .00000200  00000-0  30655-4 0  9990,2 51895  53.2168 169.7652 0001372  98.8416 261.2731 15.08841484132764,6917.876,95.437,540.69,538.792,0.0
51895.0,STARLINK-3594,PAYLOAD,2024-07-19 04:30:25,15.08837587,0.0001303,53.2166,165.8987,98.8411,261.2729,6.7446e-05,7.86e-06,0.0,0 STARLINK-3594,1 51895U 22022AV  24201.18779824  .00000786  00000-0  67446-4 0  9993,2 51895  53.2166 165.8987 0001303  98.8411 261.2729 15.08837587132899,6917.888,95.438,540.654,538.851,0.0
51895.0,STARLINK-3594,PAYLOAD,2024-07-20 13:53:31,15.08848572,0.0001259,53.2169,159.6557,94.648,265.4656,0.00011443,1.534e-05,0.0,0 STARLINK-3594,1 51895U 22022AV  24202.57883151  .00001534  00000-0  11443-3 0  9993,2 51895  53.2169 159.6557 0001259  94.6480 265.4656 15.08848572133102,6917.854,95.437,540.59,538.848,0.0
51895.0,STARLINK-3594,PAYLOAD,2024-07-21 04:12:00,15.08831867,0.0001544,53.2177,156.9843,116.1249,243.9902,4.6796e-06,-2.14e-06,0.0,0 STARLINK-3594,1 51895U 22022AV  24203.17500757 -.00000214  00000-0  46796-5 0  9994,2 51895  53.2177 156.9843 0001544 116.1249 243.9902 15.08831867133192,6917.905,95.438,540.838,538.702,0.0
51895.0,STARLINK-3594,PAYLOAD,2024-07-21 05:47:23,15.08834561,0.0001457,53.2181,156.6858,108.796,251.319,2.4234e-05,9.8e-07,0.0,0 STARLINK-3594,1 51895U 22022AV  24203.24124583  .00000098  00000-0  24234-4 0  9992,2 51895  53.2181 156.6858 0001457 108.7960 251.3190 15.08834561133208,6917.897,95.438,540.77,538.754,0.0
51895.0,STARLINK-3594,PAYLOAD,2024-07-22 02:27:25,15.08825083,0.0001344,53.2182,152.8192,102.9214,257.1928,-3.1762e-05,-7.93e-06,0.0,0 STARLINK-3594,1 51895U 22022AV  24204.10237995 -.00000793  00000-0 -31762-4 0  9998,2 51895  53.2182 152.8192 0001344 102.9214 257.1928 15.08825083133337,6917.926,95.438,540.721,538.861,0.0
51895.0,STARLINK-3594,PAYLOAD,2024-07-23 02:18:13,15.08832868,0.0002986,53.2178,148.3608,28.7592,331.3564,9.3744e-05,1.203e-05,0.0,0 STARLINK-3594,1 51895U 22022AV  24205.09598659  .00001203  00000-0  93744-4 0  9997,2 51895  53.2178 148.3608 0002986  28.7592 331.3564 15.08832868133487,6917.902,95.438,541.833,537.702,0.0
51895.0,STARLINK-3594,PAYLOAD,2024-07-23 13:25:52,15.08865472,0.0001255,53.2173,146.275,84.216,275.8975,0.00026315,3.905e-05,0.0,0 STARLINK-3594,1 51895U 22022AV  24205.55963172  .00003905  00000-0  26315-3 0  9994,2 51895  53.2173 146.2750 0001255  84.2160 275.8975 15.08865472133556,6917.803,95.436,540.536,538.799,0.0
51895.0,STARLINK-3594,PAYLOAD,2024-07-23 19:47:26,15.08834981,0.0001574,53.2158,145.09,97.6836,262.4335,9.2271e-05,1.181e-05,0.0,0 STARLINK-3594,1 51895U 22022AV  24205.82461692  .00001181  00000-0  92271-4 0  9993,2 51895  53.2158 145.0900 0001574  97.6836 262.4335 15.08834981133592,6917.896,95.438,540.85,538.672,0.0
51895.0,STARLINK-3594,PAYLOAD,2024-07-24 05:19:46,15.08833939,0.0001273,53.2164,143.3017,72.3008,287.8123,7.0492e-05,8.34e-06,0.0,0 STARLINK-3594,1 51895U 22022AV  24206.22206111  .00000834  00000-0  70492-4 0  9996,2 51895  53.2164 143.3017 0001273  72.3008 287.8123 15.08833939133651,6917.899,95.438,540.645,538.883,0.0
51895.0,STARLINK-3594,PAYLOAD,2024-07-25 05:10:31,15.08865125,0.0001189,53.2165,138.8409,124.0792,236.0313,5.5786e-05,6.01e-06,0.0,0 STARLINK-3594,1 51895U 22022AV  24207.21563841  .00000601  00000-0  55786-4 0  9993,2 51895  53.2165 138.8409 0001189 124.0792 236.0313 15.08865125133803,6917.804,95.436,540.491,538.846,0.0
51895.0,STARLINK-3594,PAYLOAD,2024-07-25 19:28:59,15.08849937,0.0001308,53.2165,136.1644,95.7869,264.3272,0.00031352,4.707e-05,0.0,0 STARLINK-3594,1 51895U 22022AV  24207.81179808  .00004707  00000-0  31352-3 0  9998,2 51895  53.2165 136.1644 0001308  95.7869 264.3272 15.08849937133897,6917.85,95.437,540.62,538.81,0.0
51895.0,STARLINK-3594,PAYLOAD,2024-07-25 22:39:45,15.08853762,0.0001378,53.2161,135.572,111.6435,248.4704,0.00030925,4.639e-05,0.0,0 STARLINK-3594,1 51895U 22022AV  24207.94427236  .00004639  00000-0  30925-3 0  9992,2 51895  53.2161 135.5720 0001378 111.6435 248.4704 15.08853762133912,6917.838,95.437,540.657,538.75,0.0
51895.0,STARLINK-3594,PAYLOAD,2024-07-26 01:50:33,15.08826772,0.0001098,53.2161,134.9735,82.6032,277.5085,-3.3174e-06,-3.41e-06,0.0,0 STARLINK-3594,1 51895U 22022AV  24208.07677719 -.00000341  00000-0 -33174-5 0  9999,2 51895  53.2161 134.9735 0001098  82.6032 277.5085 15.08826772133938,6917.921,95.438,540.545,539.026,0.0
51895.0,STARLINK-3594,PAYLOAD,2024-07-26 19:19:47,15.08840111,0.0001514,53.2183,131.7061,103.0013,257.1148,-0.00017785,-3.117e-05,0.0,0 STARLINK-3594,1 51895U 22022AV  24208.80540516 -.00003117  00000-0 -17785-3 0  9996,2 51895  53.2183 131.7061 0001514 103.0013 257.1148 15.08840111134049,6917.88,95.438,540.792,538.698,0.0
51895.0,STARLINK-3594,PAYLOAD,2024-07-27 11:13:36,15.08861012,0.0001348,53.2165,128.7342,96.4859,263.6286,0.00012513,1.705e-05,0.0,0 STARLINK-3594,1 51895U 22022AV  24209.46778933  .00001705  00000-0  12513-3 0  9998,2 51895  53.2165 128.7342 0001348  96.4859 263.6286 15.08861012134144,6917.816,95.436,540.614,538.749,0.0
51895.0,STARLINK-3594,PAYLOAD,2024-07-28 01:32:07,15.0882527,0.0001317,53.2156,126.059,98.7615,261.3527,-0.00027439,-4.65e-05,0.0,0 STARLINK-3594,1 51895U 22022AV  24210.06397053 -.00004650  00000-0 -27439-3 0  9993,2 51895  53.2156 126.0590 0001317  98.7615 261.3527 15.08825270134230,6917.925,95.438,540.702,538.879,0.0
51895.0,STARLINK-3594,PAYLOAD,2024-07-28 11:04:25,15.08830859,0.0001144,53.216,124.2682,78.2203,281.8917,0.00021097,3.071e-05,0.0,0 STARLINK-3594,1 51895U 22022AV  24210.46140915  .00003071  00000-0  21097-3 0  9998,2 51895  53.2160 124.2682 0001144  78.2203 281.8917 15.08830859134296,6917.908,95.438,540.565,538.982,0.0
51895.0,STARLINK-3594,PAYLOAD,2024-07-28 22:12:08,15.0883067,0.0001577,53.218,122.1939,95.2738,264.8434,-7.9987e-05,-1.56e-05,0.0,0 STARLINK-3594,1 51895U 22022AV  24210.92509467 -.00001560  00000-0 -79987-4 0  9995,2 51895  53.2180 122.1939 0001577  95.2738 264.8434 15.08830670134366,6917.909,95.438,540.865,538.683,0.0
51895.0,STARLINK-3594,PAYLOAD,2024-07-29 10:55:13,15.0883994,0.0001398,53.2179,119.8135,92.5764,267.5389,0.00048723,7.475e-05,0.0,0 STARLINK-3594,1 51895U 22022AV  24211.45501188  .00007475  00000-0  48723-3 0  9998,2 51895  53.2179 119.8135 0001398  92.5764 267.5389 15.08839940134442,6917.881,95.438,540.713,538.778,0.0
51895.0,STARLINK-3594,PAYLOAD,2024-07-29 17:16:45,15.08839805,0.0001916,53.2178,118.6257,93.8091,266.312,0.0004401,6.723e-05,0.0,0 STARLINK-3594,1 51895U 22022AV  24211.71997583  .00006723  00000-0  44010-3 0  9995,2 51895  53.2178 118.6257 0001916  93.8091 266.3120 15.08839805134480,6917.881,95.438,541.071,538.421,0.0
51895.0,STARLINK-3594,PAYLOAD,2024-07-29 22:02:55,15.08832061,0.0001946,53.2168,117.7314,84.6517,275.4697,0.000201,2.912e-05,0.0,0 STARLINK-3594,1 51895U 22022AV  24211.91870041  .00002912  00000-0  20100-3 0  9996,2 51895  53.2168 117.7314 0001946  84.6517 275.4697 15.08832061134518,6917.905,95.438,541.116,538.423,0.0
51895.0,STARLINK-3594,PAYLOAD,2024-07-30 10:45:59,15.08852827,0.0001191,53.2155,115.3474,72.3319,287.7803,0.00032177,4.839e-05,0.0,0 STARLINK-3594,1 51895U 22022AV  24212.44860756  .00004839  00000-0  32177-3 0  9994,2 51895  53.2155 115.3474 0001191  72.3319 287.7803 15.08852827134596,6917.841,95.437,540.53,538.882,0.0
